{"type": "FeatureCollection", "features": [ {"type": "Feature", "properties": {"norad_id": 66757, "name": "TRANSPORTER-15CV", "group": "last-30-days", "lat": 40.16511088712498, "lon": -103.91034179203005, "alt_km": 507.3920104007566, "timestamp": "2025-12-24T03:53:28.361625+00:00", "meta": {"OBJECT_NAME": "TRANSPORTER-15CV", "OBJECT_ID": "2025-276CV", "EPOCH": "2025-12-23T17:47:16.135008", "MEAN_MOTION": 15.18081733, "ECCENTRICITY": 0.0001724, "INCLINATION": 97.4423, "RA_OF_ASC_NODE": 69.3413, "ARG_OF_PERICENTER": 154.8113, "MEAN_ANOMALY": 205.3206, "EPHEMERIS_TYPE": 0, "CLASSIFICATION_TYPE": "U", "NORAD_CAT_ID": 66757, "ELEMENT_SET_NO": 999, "REV_AT_EPOCH": 379, "BSTAR": 0.00052738, "MEAN_MOTION_DOT": 0.00010689, "MEAN_MOTION_DDOT": 0}, "tle": {"line1": "1 66757U 25276CV  25357.74115897  .00010689  00000+0  52738-3 0  9998", "line2": "2 66757  97.4423  69.3413 0001724 154.8113 205.3206 15.18081733  3799"}}, "geometry": {"type": "Point", "coordinates": [-103.91034179203005, 40.16511088712498]}}, {"type": "Feature", "properties": {"norad_id": 66758, "name": "TRANSPORTER-15CW", "group": "last-30-days", "lat": 38.67073590784019, "lon": -104.25176852491634, "alt_km": 507.8347156004529, "timestamp": "2025-12-24T03:53:28.361635+00:00", "meta": {"OBJECT_NAME": "TRANSPORTER-15CW", "OBJECT_ID": "2025-276CW", "EPOCH": "2025-12-23T17:46:52.381920", "MEAN_MOTION": 15.18085364, "ECCENTRICITY": 0.0001356, "INCLINATION": 97.4393, "RA_OF_ASC_NODE": 69.3315, "ARG_OF_PERICENTER": 138.8987, "MEAN_ANOMALY": 221.235, "EPHEMERIS_TYPE": 0, "CLASSIFICATION_TYPE": "U", "NORAD_CAT_ID": 66758, "ELEMENT_SET_NO": 999, "REV_AT_EPOCH": 379, "BSTAR": 0.00049732, "MEAN_MOTION_DOT": 0.00010076, "MEAN_MOTION_DDOT": 0}, "tle": {"line1": "1 66758U 25276CW  25357.74088405  .00010076  00000+0  49732-3 0  9993", "line2": "2 66758  97.4393  69.3315 0001356 138.8987 221.2350 15.18085364  3790"}}, "geometry": {"type": "Point", "coordinates": [-104.25176852491634, 38.67073590784019]}}, {"type": "Feature", "properties": {"norad_id": 66759, "name": "TRANSPORTER-15CX", "group": "last-30-days", "lat": 29.152933693694454, "lon": -106.07637409876376, "alt_km": 508.4760530970798, "timestamp": "2025-12-24T03:53:28.361646+00:00", "meta": {"OBJECT_NAME": "TRANSPORTER-15CX", "OBJECT_ID": "2025-276CX", "EPOCH": "2025-12-23T17:44:23.467200", "MEAN_MOTION": 15.18221821, "ECCENTRICITY": 0.0002033, "INCLINATION": 97.4381, "RA_OF_ASC_NODE": 69.3287, "ARG_OF_PERICENTER": 147.494, "MEAN_ANOMALY": 212.642, "EPHEMERIS_TYPE": 0, "CLASSIFICATION_TYPE": "U", "NORAD_CAT_ID": 66759, "ELEMENT_SET_NO": 999, "REV_AT_EPOCH": 379, "BSTAR": 0.00050938, "MEAN_MOTION_DOT": 0.00010363, "MEAN_MOTION_DDOT": 0}, "tle": {"line1": "1 66759U 25276CX  25357.73916050  .00010363  00000+0  50938-3 0  9998", "line2": "2 66759  97.4381  69.3287 0002033 147.4940 212.6420 15.18221821  3796"}}, "geometry": {"type": "Point", "coordinates": [-106.07637409876376, 29.152933693694454]}}, {"type": "Feature", "properties": {"norad_id": 66760, "name": "TRANSPORTER-15CY", "group": "last-30-days", "lat": 27.20541529947234, "lon": -106.39642291886135, "alt_km": 509.3957155913404, "timestamp": "2025-12-24T03:53:28.361656+00:00", "meta": {"OBJECT_NAME": "TRANSPORTER-15CY", "OBJECT_ID": "2025-276CY", "EPOCH": "2025-12-23T17:43:52.084128", "MEAN_MOTION": 15.18200988, "ECCENTRICITY": 0.0001613, "INCLINATION": 97.4397, "RA_OF_ASC_NODE": 69.3357, "ARG_OF_PERICENTER": 114.1658, "MEAN_ANOMALY": 245.9744, "EPHEMERIS_TYPE": 0, "CLASSIFICATION_TYPE": "U", "NORAD_CAT_ID": 66760, "ELEMENT_SET_NO": 999, "REV_AT_EPOCH": 379, "BSTAR": 0.00050474, "MEAN_MOTION_DOT": 0.00010262, "MEAN_MOTION_DDOT": 0}, "tle": {"line1": "1 66760U 25276CY  25357.73879727  .00010262  00000+0  50474-3 0  9992", "line2": "2 66760  97.4397  69.3357 0001613 114.1658 245.9744 15.18200988  3792"}}, "geometry": {"type": "Point", "coordinates": [-106.39642291886135, 27.20541529947234]}}, {"type": "Feature", "properties": {"norad_id": 66761, "name": "TRANSPORTER-15CZ", "group": "last-30-days", "lat": 12.21705573542405, "lon": -108.62021804815276, "alt_km": 510.92136011658476, "timestamp": "2025-12-24T03:53:28.361666+00:00", "meta": {"OBJECT_NAME": "TRANSPORTER-15CZ", "OBJECT_ID": "2025-276CZ", "EPOCH": "2025-12-23T19:14:53.416032", "MEAN_MOTION": 15.1849056, "ECCENTRICITY": 0.0001697, "INCLINATION": 97.4397, "RA_OF_ASC_NODE": 69.4042, "ARG_OF_PERICENTER": 123.2298, "MEAN_ANOMALY": 236.9099, "EPHEMERIS_TYPE": 0, "CLASSIFICATION_TYPE": "U", "NORAD_CAT_ID": 66761, "ELEMENT_SET_NO": 999, "REV_AT_EPOCH": 380, "BSTAR": 0.00050351, "MEAN_MOTION_DOT": 0.00010322, "MEAN_MOTION_DDOT": 0}, "tle": {"line1": "1 66761U 25276CZ  25357.80200713  .00010322  00000+0  50351-3 0  9995", "line2": "2 66761  97.4397  69.4042 0001697 123.2298 236.9099 15.18490560  3800"}}, "geometry": {"type": "Point", "coordinates": [-108.62021804815276, 12.21705573542405]}}, {"type": "Feature", "properties": {"norad_id": 66762, "name": "HYDROGNSS-1", "group": "last-30-days", "lat": 74.0144779149286, "lon": 42.580585202178675, "alt_km": 507.6233359394837, "timestamp": "2025-12-24T03:53:28.361680+00:00", "meta": {"OBJECT_NAME": "HYDROGNSS-1", "OBJECT_ID": "2025-276DA", "EPOCH": "2025-12-23T18:03:42.176736", "MEAN_MOTION": 15.17304707, "ECCENTRICITY": 0.0001019, "INCLINATION": 97.4406, "RA_OF_ASC_NODE": 69.3206, "ARG_OF_PERICENTER": 254.1252, "MEAN_ANOMALY": 105.9869, "EPHEMERIS_TYPE": 0, "CLASSIFICATION_TYPE": "U", "NORAD_CAT_ID": 66762, "ELEMENT_SET_NO": 999, "REV_AT_EPOCH": 379, "BSTAR": 0.00029601, "MEAN_MOTION_DOT": 5.834e-05, "MEAN_MOTION_DDOT": 0}, "tle": {"line1": "1 66762U 25276DA  25357.75257149  .00005834  00000+0  29601-3 0  9991", "line2": "2 66762  97.4406  69.3206 0001019 254.1252 105.9869 15.17304707  3799"}}, "geometry": {"type": "Point", "coordinates": [42.580585202178675, 74.0144779149286]}}, {"type": "Feature", "properties": {"norad_id": 66763, "name": "HYDROGNSS-2", "group": "last-30-days", "lat": 82.1314963950756, "lon": -1.312281036948125, "alt_km": 506.98103941955105, "timestamp": "2025-12-24T03:53:28.361690+00:00", "meta": {"OBJECT_NAME": "HYDROGNSS-2", "OBJECT_ID": "2025-276DB", "EPOCH": "2025-12-22T10:21:31.448736", "MEAN_MOTION": 15.17420203, "ECCENTRICITY": 0.00013861, "INCLINATION": 97.4416, "RA_OF_ASC_NODE": 68.032, "ARG_OF_PERICENTER": 244.5475, "MEAN_ANOMALY": 115.5615, "EPHEMERIS_TYPE": 0, "CLASSIFICATION_TYPE": "U", "NORAD_CAT_ID": 66763, "ELEMENT_SET_NO": 999, "REV_AT_EPOCH": 359, "BSTAR": 0.00019983047, "MEAN_MOTION_DOT": 3.929e-05, "MEAN_MOTION_DDOT": 0}, "tle": {"line1": "1 66763U 25276DB  25356.43161399  .00003929  00000+0  19983-3 0  9992", "line2": "2 66763  97.4416  68.0320 0001386 244.5475 115.5615 15.17420203  3595"}}, "geometry": {"type": "Point", "coordinates": [-1.312281036948125, 82.1314963950756]}}, {"type": "Feature", "properties": {"norad_id": 66764, "name": "TRANSPORTER-15DC", "group": "last-30-days", "lat": 66.23449683779404, "lon": -92.99818747482226, "alt_km": 505.8896648207274, "timestamp": "2025-12-24T03:53:28.361700+00:00", "meta": {"OBJECT_NAME": "TRANSPORTER-15DC", "OBJECT_ID": "2025-276DC", "EPOCH": "2025-12-23T19:29:06.178848", "MEAN_MOTION": 15.17699385, "ECCENTRICITY": 0.0001898, "INCLINATION": 97.4406, "RA_OF_ASC_NODE": 69.3924, "ARG_OF_PERICENTER": 183.5813, "MEAN_ANOMALY": 176.5407, "EPHEMERIS_TYPE": 0, "CLASSIFICATION_TYPE": "U", "NORAD_CAT_ID": 66764, "ELEMENT_SET_NO": 999, "REV_AT_EPOCH": 380, "BSTAR": 0.00048934, "MEAN_MOTION_DOT": 9.803e-05, "MEAN_MOTION_DDOT": 0}, "tle": {"line1": "1 66764U 25276DC  25357.81187707  .00009803  00000+0  48934-3 0  9992", "line2": "2 66764  97.4406  69.3924 0001898 183.5813 176.5407 15.17699385  3804"}}, "geometry": {"type": "Point", "coordinates": [-92.99818747482226, 66.23449683779404]}}, {"type": "Feature", "properties": {"norad_id": 66765, "name": "TRANSPORTER-15DD", "group": "last-30-days", "lat": -7.125041303435513, "lon": -111.16217275202155, "alt_km": 513.124389097412, "timestamp": "2025-12-24T03:53:28.361713+00:00", "meta": {"OBJECT_NAME": "TRANSPORTER-15DD", "OBJECT_ID": "2025-276DD", "EPOCH": "2025-12-23T17:34:58.005120", "MEAN_MOTION": 15.1874756, "ECCENTRICITY": 0.0001974, "INCLINATION": 97.4421, "RA_OF_ASC_NODE": 69.3512, "ARG_OF_PERICENTER": 117.1375, "MEAN_ANOMALY": 243.0061, "EPHEMERIS_TYPE": 0, "CLASSIFICATION_TYPE": "U", "NORAD_CAT_ID": 66765, "ELEMENT_SET_NO": 999, "REV_AT_EPOCH": 379, "BSTAR": 0.00060205, "MEAN_MOTION_DOT": 0.00012451, "MEAN_MOTION_DDOT": 0}, "tle": {"line1": "1 66765U 25276DD  25357.73261580  .00012451  00000+0  60205-3 0  9994", "line2": "2 66765  97.4421  69.3512 0001974 117.1375 243.0061 15.18747560  3790"}}, "geometry": {"type": "Point", "coordinates": [-111.16217275202155, -7.125041303435513]}}, {"type": "Feature", "properties": {"norad_id": 66766, "name": "TRANSPORTER-15DE", "group": "last-30-days", "lat": 9.235446768473928, "lon": -109.03455366559113, "alt_km": 512.2467230910843, "timestamp": "2025-12-24T03:53:28.361723+00:00", "meta": {"OBJECT_NAME": "TRANSPORTER-15DE", "OBJECT_ID": "2025-276DE", "EPOCH": "2025-12-23T17:39:10.901376", "MEAN_MOTION": 15.18418859, "ECCENTRICITY": 0.0002039, "INCLINATION": 97.4363, "RA_OF_ASC_NODE": 69.3291, "ARG_OF_PERICENTER": 88.478, "MEAN_ANOMALY": 271.6688, "EPHEMERIS_TYPE": 0, "CLASSIFICATION_TYPE": "U", "NORAD_CAT_ID": 66766, "ELEMENT_SET_NO": 999, "REV_AT_EPOCH": 379, "BSTAR": 0.00035555, "MEAN_MOTION_DOT": 7.251e-05, "MEAN_MOTION_DDOT": 0}, "tle": {"line1": "1 66766U 25276DE  25357.73554284  .00007251  00000+0  35555-3 0  9993", "line2": "2 66766  97.4363  69.3291 0002039  88.4780 271.6688 15.18418859  3791"}}, "geometry": {"type": "Point", "coordinates": [-109.03455366559113, 9.235446768473928]}}]}